NOAA 15                 
1 25338U 98030A   23115.82461342  .00000318  00000+0  15064-3 0  9993
2 25338  98.6110 145.7654 0011582 105.8220 254.4238 14.26299611297798
NOAA 18                 
1 28654U 05018A   23115.80559515  .00000309  00000+0  18985-3 0  9994
2 28654  98.9110 190.4467 0014749 164.4749 195.6878 14.12920822924174
NOAA 19                 
1 33591U 09005A   23115.77269381  .00000294  00000+0  18288-3 0  9994
2 33591  99.1052 160.8496 0014324  34.5748 325.6351 14.12740144732542
METOP-B                 
1 38771U 12049A   23115.60712454  .00000253  00000+0  13571-3 0  9992
2 38771  98.6828 175.8489 0001366 116.2564  44.0899 14.21500604550087
SARAL                   
1 39086U 13009A   23115.56266554  .00000201  00000+0  90685-4 0  9994
2 39086  98.5484 301.6183 0003026  86.1202 274.0328 14.32180367531154
METOP-C                 
1 43689U 18087A   23115.75337409  .00000243  00000+0  13116-3 0  9997
2 43689  98.6873 176.1027 0002554 190.7344 169.3779 14.21494122231672
ANGELS                  
1 44876U 19092D   23115.45244228  .00007212  00000+0  32953-3 0  9999
2 44876  97.4787 300.5149 0010963 358.9474   1.1736 15.20819757185607
GAZELLE                 
1 54023U 22127A   23115.41542305 -.00000043  00000+0  00000+0 0  9990
2 54023  98.3209 114.6384 0014613  56.9676 303.2941 14.41811448 28770
EOS-6 (OCEANSAT-3)      
1 54361U 22158A   23116.14947995  .00001196  00000+0  34083-3 0  9995
2 54361  98.3480 213.8334 0001356 112.4872 247.6464 14.47017008 21814
